[{"OBJECT_NAME":"UNISAT-6","OBJECT_ID":"2014-033C","EPOCH":"2026-03-09T22:37:09.123744","MEAN_MOTION":14.87640019,"ECCENTRICITY":0.00460496,"INCLINATION":97.7728,"RA_OF_ASC_NODE":223.5167,"ARG_OF_PERICENTER":36.9255,"MEAN_ANOMALY":323.5117,"EPHEMERIS_TYPE":0,"CLASSIFICATION_TYPE":"U","NORAD_CAT_ID":40012,"ELEMENT_SET_NO":999,"REV_AT_EPOCH":63140,"BSTAR":0.00041207686,"MEAN_MOTION_DOT":3.766e-5,"MEAN_MOTION_DDOT":0},{"OBJECT_NAME":"SL-14 R\/B","OBJECT_ID":"1994-066B","EPOCH":"2026-03-09T12:27:40.446432","MEAN_MOTION":14.80893946,"ECCENTRICITY":0.00215923,"INCLINATION":82.537,"RA_OF_ASC_NODE":90.4426,"ARG_OF_PERICENTER":230.6379,"MEAN_ANOMALY":129.2922,"EPHEMERIS_TYPE":0,"CLASSIFICATION_TYPE":"U","NORAD_CAT_ID":23318,"ELEMENT_SET_NO":999,"REV_AT_EPOCH":69359,"BSTAR":5.612059e-5,"MEAN_MOTION_DOT":4.58e-6,"MEAN_MOTION_DDOT":0}]
